OBJECT_NAME,OBJECT_ID,EPOCH,MEAN_MOTION,ECCENTRICITY,INCLINATION,RA_OF_ASC_NODE,ARG_OF_PERICENTER,MEAN_ANOMALY,EPHEMERIS_TYPE,CLASSIFICATION_TYPE,NORAD_CAT_ID,ELEMENT_SET_NO,REV_AT_EPOCH,BSTAR,MEAN_MOTION_DOT,MEAN_MOTION_DDOT
H-2A R/B,2006-002B,2026-07-02T20:57:14.779872,15.18279185,.00500591,98.2582,341.1238,208.0583,151.7949,0,U,28932,999,11190,.37769194E-3,.7917E-4,0
RESURS-DK 1,2006-021A,2026-07-02T18:25:23.130048,15.13281648,.00066998,69.9340,299.2211,284.6329,75.4094,0,U,29228,999,10493,.15057874E-3,.2578E-4,0
CZ-4B R/B,2006-046C,2026-07-02T13:08:25.160352,15.17896573,.0031427,97.5436,228.1071,226.7926,133.0682,0,U,29507,999,7746,.24527E-3,.4964E-4,0
CZ-2C R/B,2007-010B,2026-07-02T20:10:07.370112,14.20279629,.00581421,98.4112,291.4267,320.3520,39.3413,0,U,31114,999,99606,.68733444E-4,.108E-5,0
COSMO-SKYMED 1,2007-023A,2026-07-03T17:02:38.961024,14.97181568,.00012446,97.8852,16.7056,83.5603,276.5760,0,U,31598,999,3226,.20522533E-3,.2312E-4,0
COSMOS 2428,2007-029A,2026-07-02T18:57:01.162656,14.12928946,.00071413,70.9378,321.7172,105.0826,255.1086,0,U,31792,999,98035,.69687924E-4,.82E-6,0
SL-16 R/B,2007-029B,2026-07-02T18:05:28.438368,14.14852771,.00023773,70.9765,290.5058,261.4453,260.0962,0,U,31793,999,98164,-.96397991E-4,-.234E-5,0
KORONAS-FOTON,2009-003A,2026-07-02T20:56:43.208448,15.46056137,.00126552,82.4298,155.8926,99.6569,260.6110,0,U,33504,999,96352,.29139876E-3,.14325E-3,0
CZ-2C R/B,2011-030B,2026-07-02T20:15:21.004704,14.81511046,.00516986,97.8663,138.9484,337.1718,75.8034,0,U,37731,999,80714,.1905938E-3,.1474E-4,0
H-2A R/B,2012-025E,2026-07-02T21:03:41.987520,14.95794454,.00423795,98.4834,160.3175,296.5170,63.1707,0,U,38341,999,76543,.3300286E-3,.3678E-4,0
SHIJIAN-16 (SJ-16),2013-057A,2026-07-03T15:51:45.039744,14.92639277,.00162631,74.9738,325.4800,192.2928,167.7867,0,U,39358,999,68880,.12130373E-3,.1223E-4,0
SL-4 R/B,2014-021B,2026-07-02T21:01:17.814432,15.42263865,.0090452,51.6052,133.8949,163.2563,197.1442,0,U,39679,999,67403,.26102382E-3,.12798E-3,0
ALOS-2,2014-029A,2026-07-03T15:23:53.204064,14.79475228,.00016482,97.9233,281.5701,89.5622,270.5778,0,U,39766,999,65401,.2127317E-3,.1538E-4,0
YAOGAN-29,2015-069A,2026-07-03T15:21:31.977216,14.83099919,.00016776,98.0016,213.2984,28.8098,331.3208,0,U,41038,999,57306,.11530484E-3,.885E-5,0
ASTRO-H (HITOMI),2016-012A,2026-07-02T18:15:57.927168,15.10584580,.00095931,31.0004,333.6033,49.4068,310.7404,0,U,41337,999,56964,.18505421E-3,.3229E-4,0
HXMT (HUIYAN),2017-034A,2026-07-03T15:27:36.324288,15.18606422,.00327816,43.0143,91.3968,250.4727,109.2580,0,U,42758,999,50016,.32449214E-3,.6694E-4,0
SAOCOM 1A,2018-076A,2026-07-03T16:13:37.261344,14.82160905,.00015269,97.8879,11.1843,80.9296,279.2090,0,U,43641,999,41854,.86409581E-4,.636E-5,0
H-2A R/B,2018-084L,2026-07-02T17:34:27.476544,15.45765966,.00217503,98.8551,66.0241,346.2519,13.8130,0,U,43682,999,42352,.44926697E-3,.21852E-3,0
SAOCOM 1B,2020-059A,2026-07-03T15:21:21.305088,14.82150655,.00015877,97.8884,10.2442,79.7812,280.3580,0,U,46265,999,31592,.12646654E-4,.48E-6,0
CSS (TIANHE),2021-035A,2026-07-03T05:28:28.025760,15.57904594,.00028803,41.4672,224.3616,262.1202,97.9309,0,U,48274,999,29621,.10677817E-3,.7882E-4,0
COSMOS 2550,2021-056A,2026-07-03T03:07:36.240384,15.33883607,.00083727,67.1430,51.6786,268.3779,91.6416,0,U,48865,999,28116,.18656358E-3,.5961E-4,0
CZ-2C R/B,2022-058K,2026-07-02T17:16:13.391616,15.62969822,.00314401,50.1859,82.6344,331.2702,28.6539,0,U,52794,999,22807,.40999834E-3,.38551E-3,0
CZ-2C R/B,2022-132E,2026-07-02T17:51:11.488608,15.73474922,.00123008,97.2893,191.4824,32.6928,327.5095,0,U,54039,999,20839,.51922838E-3,.72758E-3,0
GSLV R/B,2022-138AN,2026-07-02T19:45:43.239168,14.97332034,.00241829,87.3814,127.7337,92.5031,267.8970,0,U,54149,999,20115,.24894487E-3,.2933E-4,0
XRISM,2023-137A,2026-07-02T15:11:15.497664,15.12598210,.00077628,31.0015,259.5443,119.7608,240.3804,0,U,57800,999,15520,.28741414E-3,.5244E-4,0
ACS3,2024-077B,2026-07-02T16:54:12.345120,13.94758402,.01081122,97.1705,99.0432,49.9893,311.0702,0,U,59588,999,11020,.26027296E-1,.36756E-3,0
CZ-8A R/B,2025-231K,2026-07-02T20:14:49.061760,14.30159318,.01164819,50.0053,332.7072,279.1280,79.6472,0,U,66004,999,3718,.56634603E-4,-.5E-7,0
SZ-21 MODULE,2025-246C,2026-07-02T19:03:14.639616,15.77749354,.0005303,41.4699,210.0293,125.3389,234.7952,0,U,66515,999,3620,.25308429E-3,.43719E-3,0
